{
  "norad_id": 58848,
  "name": "AAC-HSI-SAT3",
  "history": [
    {
      "epoch": "2026-04-10T04:53:01.478112Z",
      "apogee_km": 526.0213158095767,
      "perigee_km": 513.3122502953784,
      "latitude_deg": 2.655654634079846e-05,
      "longitude_deg": -109.85756081580303,
      "height_km": 525.976469518861,
      "semi_major_axis_km": 6897.803783052477,
      "eccentricity": 0.00092124,
      "inclination_deg": 97.3468,
      "raan_deg": 161.8393,
      "arg_perigee_deg": 239.5986,
      "mean_anomaly_deg": 120.4337,
      "mean_motion_rev_day": 15.15432189
    },
    {
      "epoch": "2026-04-11T20:30:05.831424Z",
      "apogee_km": 526.0667808053986,
      "perigee_km": 513.2286239173627,
      "latitude_deg": 8.285922823748447e-05,
      "longitude_deg": 15.843841585939623,
      "height_km": 526.6241428140886,
      "semi_major_axis_km": 6897.78470236138,
      "eccentricity": 0.0009306,
      "inclination_deg": 97.3467,
      "raan_deg": 163.4359,
      "arg_perigee_deg": 232.7821,
      "mean_anomaly_deg": 127.2564,
      "mean_motion_rev_day": 15.15438477
    },
    {
      "epoch": "2026-04-13T05:46:49.803744Z",
      "apogee_km": 526.1260790908582,
      "perigee_km": 513.148606442378,
      "latitude_deg": -2.8647779213476453e-05,
      "longitude_deg": -123.3651777981894,
      "height_km": 527.0987671927805,
      "semi_major_axis_km": 6897.774342766618,
      "eccentricity": 0.0009407,
      "inclination_deg": 97.3463,
      "raan_deg": 164.7768,
      "arg_perigee_deg": 227.6923,
      "mean_anomaly_deg": 132.3513,
      "mean_motion_rev_day": 15.15441891
    },
    {
      "epoch": "2026-04-14T19:48:48.347712Z",
      "apogee_km": 526.2036041935689,
      "perigee_km": 513.0454343194351,
      "latitude_deg": 7.285258603837005e-06,
      "longitude_deg": 26.11162920006962,
      "height_km": 527.6483435785406,
      "semi_major_axis_km": 6897.761519256502,
      "eccentricity": 0.0009538,
      "inclination_deg": 97.346,
      "raan_deg": 166.3095,
      "arg_perigee_deg": 221.4628,
      "mean_anomaly_deg": 138.5882,
      "mean_motion_rev_day": 15.15446117
    },
    {
      "epoch": "2026-04-15T21:10:07.047264Z",
      "apogee_km": 526.2535841858744,
      "perigee_km": 512.9671432139148,
      "latitude_deg": -4.3757180002888905e-05,
      "longitude_deg": 5.764322143578344,
      "height_km": 527.981365709975,
      "semi_major_axis_km": 6897.747363699894,
      "eccentricity": 0.0009631,
      "inclination_deg": 97.3459,
      "raan_deg": 167.3314,
      "arg_perigee_deg": 217.3973,
      "mean_anomaly_deg": 142.659,
      "mean_motion_rev_day": 15.15450782
    },
    {
      "epoch": "2026-04-16T19:21:15.640128Z",
      "apogee_km": 526.277739190903,
      "perigee_km": 512.8975329418608,
      "latitude_deg": 4.059323688354216e-05,
      "longitude_deg": 32.961474335533445,
      "height_km": 528.2242260333455,
      "semi_major_axis_km": 6897.724636066381,
      "eccentricity": 0.0009699,
      "inclination_deg": 97.3458,
      "raan_deg": 168.2255,
      "arg_perigee_deg": 214.0439,
      "mean_anomaly_deg": 146.0173,
      "mean_motion_rev_day": 15.15458272
    },
    {
      "epoch": "2026-04-17T22:17:38.740704Z",
      "apogee_km": 526.3243938023261,
      "perigee_km": 512.8117895277546,
      "latitude_deg": -4.598796559620287e-05,
      "longitude_deg": -11.155541748890245,
      "height_km": 528.5420937478453,
      "semi_major_axis_km": 6897.7050916650405,
      "eccentricity": 0.0009795,
      "inclination_deg": 97.3456,
      "raan_deg": 169.3111,
      "arg_perigee_deg": 209.4848,
      "mean_anomaly_deg": 150.5833,
      "mean_motion_rev_day": 15.15464713
    },
    {
      "epoch": "2026-04-18T20:28:46.764192Z",
      "apogee_km": 526.3669396470277,
      "perigee_km": 512.7315934353292,
      "latitude_deg": 7.378437424352825e-05,
      "longitude_deg": 16.043783112300595,
      "height_km": 528.7715768644348,
      "semi_major_axis_km": 6897.686266541178,
      "eccentricity": 0.0009884,
      "inclination_deg": 97.3453,
      "raan_deg": 170.205,
      "arg_perigee_deg": 205.9568,
      "mean_anomaly_deg": 154.1171,
      "mean_motion_rev_day": 15.15470917
    },
    {
      "epoch": "2026-04-19T20:14:59.300160Z",
      "apogee_km": 526.4335517601885,
      "perigee_km": 512.6244244520003,
      "latitude_deg": -2.26489003865992e-05,
      "longitude_deg": 19.473355885945207,
      "height_km": 529.0051570689783,
      "semi_major_axis_km": 6897.665988106094,
      "eccentricity": 0.001001,
      "inclination_deg": 97.3449,
      "raan_deg": 171.163,
      "arg_perigee_deg": 202.387,
      "mean_anomaly_deg": 157.6927,
      "mean_motion_rev_day": 15.154776
    },
    {
      "epoch": "2026-04-20T13:40:52.204224Z",
      "apogee_km": 526.4737424843406,
      "perigee_km": 512.5555230666932,
      "latitude_deg": -1.98516209828976e-05,
      "longitude_deg": 117.98963986072168,
      "height_km": 529.1532247179579,
      "semi_major_axis_km": 6897.651632775517,
      "eccentricity": 0.00100891,
      "inclination_deg": 97.3448,
      "raan_deg": 171.8656,
      "arg_perigee_deg": 199.8181,
      "mean_anomaly_deg": 160.2661,
      "mean_motion_rev_day": 15.15482331
    },
    {
      "epoch": "2026-04-21T19:47:23.203104Z",
      "apogee_km": 526.5399296359165,
      "perigee_km": 512.4632288234234,
      "latitude_deg": 2.0534674138414366e-05,
      "longitude_deg": 26.33715286600596,
      "height_km": 529.3798586287254,
      "semi_major_axis_km": 6897.63857922967,
      "eccentricity": 0.0010204,
      "inclination_deg": 97.3446,
      "raan_deg": 173.0788,
      "arg_perigee_deg": 195.3479,
      "mean_anomaly_deg": 164.7446,
      "mean_motion_rev_day": 15.15486633
    },
    {
      "epoch": "2026-04-22T21:08:39.619968Z",
      "apogee_km": 526.607493293247,
      "perigee_km": 512.3790615569751,
      "latitude_deg": -7.105798476079665e-05,
      "longitude_deg": 5.999183617854817,
      "height_km": 529.5536664508763,
      "semi_major_axis_km": 6897.630277425111,
      "eccentricity": 0.0010314,
      "inclination_deg": 97.3446,
      "raan_deg": 174.1005,
      "arg_perigee_deg": 191.5511,
      "mean_anomaly_deg": 168.5486,
      "mean_motion_rev_day": 15.15489369
    },
    {
      "epoch": "2026-04-23T14:34:32.029824Z",
      "apogee_km": 526.6500502181043,
      "perigee_km": 512.3173462168634,
      "latitude_deg": -3.0314576183738394e-05,
      "longitude_deg": 104.51742765550264,
      "height_km": 529.6526021750498,
      "semi_major_axis_km": 6897.620698217484,
      "eccentricity": 0.00103896,
      "inclination_deg": 97.3446,
      "raan_deg": 174.803,
      "arg_perigee_deg": 188.9462,
      "mean_anomaly_deg": 171.1587,
      "mean_motion_rev_day": 15.15492526
    },
    {
      "epoch": "2026-04-24T20:41:02.289984Z",
      "apogee_km": 526.7050511612906,
      "perigee_km": 512.2311166532199,
      "latitude_deg": 1.4425730696388034e-05,
      "longitude_deg": 12.867828164843646,
      "height_km": 529.769400817156,
      "semi_major_axis_km": 6897.605083907255,
      "eccentricity": 0.0010492,
      "inclination_deg": 97.3446,
      "raan_deg": 176.016,
      "arg_perigee_deg": 184.7085,
      "mean_anomaly_deg": 175.4051,
      "mean_motion_rev_day": 15.15497672
    },
    {
      "epoch": "2026-04-25T20:27:13.288896Z",
      "apogee_km": 526.7841676259113,
      "perigee_km": 512.115759189529,
      "latitude_deg": -4.7893085401163426e-05,
      "longitude_deg": 16.303719387618628,
      "height_km": 529.8709216107823,
      "semi_major_axis_km": 6897.58696340772,
      "eccentricity": 0.0010633,
      "inclination_deg": 97.3446,
      "raan_deg": 176.9739,
      "arg_perigee_deg": 180.9951,
      "mean_anomaly_deg": 179.1262,
      "mean_motion_rev_day": 15.15503644
    },
    {
      "epoch": "2026-04-26T21:48:28.598112Z",
      "apogee_km": 526.8602573728185,
      "perigee_km": 512.0028946600796,
      "latitude_deg": 7.154517009174712e-06,
      "longitude_deg": -4.029637725658633,
      "height_km": 529.9397012582225,
      "semi_major_axis_km": 6897.568576016449,
      "eccentricity": 0.001077,
      "inclination_deg": 97.3446,
      "raan_deg": 177.9956,
      "arg_perigee_deg": 177.4365,
      "mean_anomaly_deg": 182.6925,
      "mean_motion_rev_day": 15.15509704
    },
    {
      "epoch": "2026-04-27T19:59:34.155744Z",
      "apogee_km": 526.8989653352983,
      "perigee_km": 511.9326552475277,
      "latitude_deg": -5.5282585364374604e-05,
      "longitude_deg": 23.180013684433163,
      "height_km": 529.9489653846261,
      "semi_major_axis_km": 6897.552810291413,
      "eccentricity": 0.0010849,
      "inclination_deg": 97.3445,
      "raan_deg": 178.8895,
      "arg_perigee_deg": 174.3793,
      "mean_anomaly_deg": 185.7563,
      "mean_motion_rev_day": 15.155149
    },
    {
      "epoch": "2026-04-28T19:45:44.099712Z",
      "apogee_km": 526.9390106063156,
      "perigee_km": 511.858238716557,
      "latitude_deg": -3.409905138841717e-05,
      "longitude_deg": 26.62010273250026,
      "height_km": 529.9344172860056,
      "semi_major_axis_km": 6897.5356246614365,
      "eccentricity": 0.0010932,
      "inclination_deg": 97.3444,
      "raan_deg": 179.8472,
      "arg_perigee_deg": 171.1611,
      "mean_anomaly_deg": 188.9816,
      "mean_motion_rev_day": 15.15520564
    },
    {
      "epoch": "2026-04-29T19:31:53.806944Z",
      "apogee_km": 526.9846213590117,
      "perigee_km": 511.78386404434514,
      "latitude_deg": 5.624116559882667e-06,
      "longitude_deg": 30.0611781167137,
      "height_km": 529.8965253072972,
      "semi_major_axis_km": 6897.521242701678,
      "eccentricity": 0.0011019,
      "inclination_deg": 97.3443,
      "raan_deg": 180.8049,
      "arg_perigee_deg": 167.7909,
      "mean_anomaly_deg": 192.3593,
      "mean_motion_rev_day": 15.15525304
    }
  ]
}